     3.00           N                   E                   RINEX VERSION / TYPE
BRD_USR             ESA                 20190103 192448  UTCPGM / RUN BY / DATE
 GAL   3.4750E+01 -2.3438E-02  2.1973E-03  0.0000E+00       IONOSPHERIC CORR
GAUT  2.7939677238E-09-1.776356839E-15 345600 2034 GSTB   0 TIME SYSTEM CORR
GPGA -3.0559021980E-09-1.154631946E-14 432000 2034 GSTB   0 TIME SYSTEM CORR
                                                            END OF HEADER
E01 2019 01 03 17 30 00-5.130094359629E-04-8.100187187665E-12 0.000000000000E+00
     4.100000000000E+01 1.997812500000E+02 2.504390032183E-09-1.220444871628E+00
     9.315088391304E-06 1.186060253531E-04 8.651986718178E-06 5.440630855560E+03
     4.086000000000E+05 4.284083843231E-08-2.824818528665E+00-2.793967723846E-08
     9.903376958830E-01 1.673125000000E+02-8.794796100388E-01-5.384867158474E-09
     1.521491947675E-10 2.580000000000E+02 2.034000000000E+03 0.000000000000E+00
     3.120000000000E+00 0.000000000000E+00-4.656612873077E-09 0.000000000000E+00
     4.093000000000E+05 0.000000000000E+00 0.000000000000E+00 0.000000000000E+00
E02 2019 01 03 17 30 00 4.182849079370E-05 1.591615728103E-12 0.000000000000E+00
     4.100000000000E+01 1.903437500000E+02 2.570821370743E-09 1.333246499731E+00
     8.948147296906E-06 2.665028441697E-04 6.854534149170E-06 5.440625358582E+03
     4.086000000000E+05 1.676380634308E-08-2.824851406285E+00 4.470348358154E-08
     9.903466796629E-01 2.056875000000E+02-2.932893289978E-01-5.345936965447E-09
     1.046472161195E-10 2.580000000000E+02 2.034000000000E+03 0.000000000000E+00
     3.120000000000E+00 0.000000000000E+00-5.820766091347E-09 0.000000000000E+00
     4.093000000000E+05 0.000000000000E+00 0.000000000000E+00 0.000000000000E+00
E04 2019 01 03 17 30 00-1.925178221427E-04-7.872813512222E-12 0.000000000000E+00
     4.100000000000E+01-1.593750000000E+00 3.894805091408E-09-2.623295679389E+00
    -3.911554813385E-08 8.630845695734E-05 3.924593329430E-06 5.440602565765E+03
     4.086000000000E+05-2.421438694000E-08 1.366189937329E+00-1.862645149231E-09
     9.521873875924E-01 2.539062500000E+02 1.830303502390E+00-5.853815263474E-09
     8.857511808063E-11 2.580000000000E+02 2.034000000000E+03 0.000000000000E+00
     3.120000000000E+00 0.000000000000E+00-7.916241884232E-09 0.000000000000E+00
     4.093000000000E+05 0.000000000000E+00 0.000000000000E+00 0.000000000000E+00
E05 2019 01 03 17 30 00 1.313189859502E-04-6.536993168993E-12 0.000000000000E+00
     4.100000000000E+01-3.468750000000E+00 3.862303737596E-09 2.422513640125E+00
    -2.756714820862E-07 1.533090835437E-04 4.103407263756E-06 5.440604530334E+03
     4.086000000000E+05 1.676380634308E-08 1.366124059202E+00-6.891787052155E-08
     9.521572763496E-01 2.494687500000E+02 1.494476683501E+00-5.879530620336E-09
     7.143154683922E-13 2.580000000000E+02 2.034000000000E+03 0.000000000000E+00
     3.120000000000E+00 0.000000000000E+00-1.396983861923E-09 0.000000000000E+00
     4.093000000000E+05 0.000000000000E+00 0.000000000000E+00 0.000000000000E+00
E08 2019 01 03 17 30 00 6.430588255171E-03-7.460698725481E-12 0.000000000000E+00
     4.100000000000E+01-7.218750000000E+00 3.754799259603E-09 1.842355197078E+00
    -2.849847078323E-07 2.406931016594E-04 4.325062036514E-06 5.440602752686E+03
     4.086000000000E+05-2.235174179077E-08 1.357487179578E+00 1.676380634308E-08
     9.581288903941E-01 2.463125000000E+02 5.034181025504E-01-5.725595636897E-09
     6.071681481333E-12 2.580000000000E+02 2.034000000000E+03 0.000000000000E+00
     3.120000000000E+00 0.000000000000E+00-8.614733815193E-09 0.000000000000E+00
     4.093000000000E+05 0.000000000000E+00 0.000000000000E+00 0.000000000000E+00
E12 2019 01 03 17 30 00 5.861872690730E-03 8.439826615358E-11 0.000000000000E+00
     4.100000000000E+01-1.925937500000E+02 2.575464421288E-09 2.224454401546E+00
    -8.942559361458E-06 3.682168899104E-04 6.781890988350E-06 5.440608587265E+03
     4.086000000000E+05-3.539025783539E-08-7.391075542478E-01-3.725290298462E-08
     9.820452851908E-01 2.061875000000E+02-9.075818567244E-01-5.362723378954E-09
    -1.585780339831E-10 2.580000000000E+02 2.034000000000E+03 0.000000000000E+00
     3.120000000000E+00 0.000000000000E+00-1.559965312481E-08 0.000000000000E+00
     4.093000000000E+05 0.000000000000E+00 0.000000000000E+00 0.000000000000E+00
E19 2019 01 03 17 30 00-9.398034308106E-06 2.984279490192E-13 0.000000000000E+00
     4.100000000000E+01-3.125000000000E-01 3.787657771149E-09-2.122265432188E+00
     2.235174179077E-08 1.407141098753E-04 4.293397068977E-06 5.440601276398E+03
     4.086000000000E+05 2.048909664154E-08 1.362841325160E+00-5.587935447693E-09
     9.579160548315E-01 2.504687500000E+02 2.189933370647E+00-5.743453523607E-09
     7.286017777600E-11 2.580000000000E+02 2.034000000000E+03 0.000000000000E+00
     3.120000000000E+00 0.000000000000E+00-8.614733815193E-09 0.000000000000E+00
     4.093000000000E+05 0.000000000000E+00 0.000000000000E+00 0.000000000000E+00
E24 2019 01 03 17 30 00 6.304823735263E-03-1.961097950698E-11 0.000000000000E+00
     4.100000000000E+01 1.804062500000E+02 2.509747398196E-09 2.164996891851E+00
     8.312985301018E-06 4.615334328264E-04 8.093193173409E-06 5.440625202179E+03
     4.086000000000E+05-5.029141902924E-08-2.821342096954E+00 1.862645149231E-08
     9.879052815118E-01 1.785000000000E+02 4.426780920737E-01-5.321650239522E-09
     8.071764792831E-11 2.580000000000E+02 2.034000000000E+03 0.000000000000E+00
     3.120000000000E+00 0.000000000000E+00 4.260800778866E-08 0.000000000000E+00
     4.093000000000E+05 0.000000000000E+00 0.000000000000E+00 0.000000000000E+00
E26 2019 01 03 17 30 00 5.061212345026E-03-4.330047431722E-11 0.000000000000E+00
     4.100000000000E+01-2.054687500000E+02 2.591536519327E-09-1.277902954130E+00
    -9.432435035706E-06 3.250035224482E-04 8.121132850647E-06 5.440613227844E+03
     4.086000000000E+05 3.725290298462E-08-7.354504258223E-01 1.490116119385E-08
     9.783885181061E-01 1.737812500000E+02-2.125823417192E+00-5.448798392895E-09
    -1.342913080577E-10 2.580000000000E+02 2.034000000000E+03 0.000000000000E+00
     3.120000000000E+00 0.000000000000E+00 1.164153218269E-09 0.000000000000E+00
     4.093000000000E+05 0.000000000000E+00 0.000000000000E+00 0.000000000000E+00
E27 2019 01 03 17 30 00 5.570825305767E-04-7.688072400924E-12 0.000000000000E+00
     4.100000000000E+01 2.050000000000E+02 2.487603618676E-09 4.170376424689E-01
     9.395182132721E-06 2.110941568390E-04 7.489696145058E-06 5.440634143829E+03
     4.086000000000E+05 7.264316082001E-08-2.827408550515E+00-7.078051567078E-08
     9.898757224457E-01 1.939687500000E+02-9.282987341112E-01-5.340579599434E-09
     1.389343586023E-10 2.580000000000E+02 2.034000000000E+03 0.000000000000E+00
     3.120000000000E+00 0.000000000000E+00-2.561137080193E-09 0.000000000000E+00
     4.093000000000E+05 0.000000000000E+00 0.000000000000E+00 0.000000000000E+00
E30 2019 01 03 17 30 00 5.217675061431E-03-3.048228336411E-11 0.000000000000E+00
     4.100000000000E+01 1.993125000000E+02 2.576178736756E-09-2.336537090263E-01
     9.246170520782E-06 2.944583538920E-04 6.793066859245E-06 5.440624282837E+03
     4.086000000000E+05 5.774199962616E-08-2.821398357858E+00 9.313225746155E-09
     9.878894190910E-01 2.039687500000E+02 4.876079504169E-01-5.394510417298E-09
     1.214336296267E-10 2.580000000000E+02 2.034000000000E+03 0.000000000000E+00
     3.120000000000E+00 0.000000000000E+00-2.793967723846E-09 0.000000000000E+00
     4.093000000000E+05 0.000000000000E+00 0.000000000000E+00 0.000000000000E+00
E31 2019 01 03 17 30 00 9.419230627827E-04-9.663381206337E-12 0.000000000000E+00
     4.100000000000E+01 1.797500000000E+02 2.571178528478E-09-1.335194626776E+00
     8.350238204002E-06 2.578758867458E-04 8.298084139824E-06 5.440632888794E+03
     4.086000000000E+05-2.607703208923E-08-2.827455913951E+00-5.215406417847E-08
     9.898778056410E-01 1.730625000000E+02-1.532240817992E+00-5.357723170675E-09
     9.107522222000E-11 2.580000000000E+02 2.034000000000E+03 0.000000000000E+00
     3.120000000000E+00 0.000000000000E+00-4.656612873077E-10 0.000000000000E+00
     4.093000000000E+05 0.000000000000E+00 0.000000000000E+00 0.000000000000E+00
E33 2019 01 03 17 30 00 8.478613453917E-04 1.136868377216E-13 0.000000000000E+00
     4.100000000000E+01-2.075625000000E+02 2.487246460942E-09-2.667478020241E+00
    -9.633600711823E-06 3.529951209202E-04 7.150694727898E-06 5.440606470108E+03
     4.086000000000E+05 5.587935447693E-08-7.444325541125E-01-2.607703208923E-08
     9.852684755411E-01 1.975312500000E+02-1.528253511882E+00-5.391295997690E-09
    -1.764359206929E-10 2.580000000000E+02 2.034000000000E+03 0.000000000000E+00
     3.120000000000E+00 5.600000000000E+01-8.149072527885E-09 0.000000000000E+00
     4.093000000000E+05 0.000000000000E+00 0.000000000000E+00 0.000000000000E+00
E36 2019 01 03 17 30 00 7.639381801710E-04-4.391154106997E-12 0.000000000000E+00
     4.100000000000E+01-1.755625000000E+02 2.469388574232E-09 1.377438634819E+00
    -8.128583431244E-06 3.213813761249E-04 7.467344403267E-06 5.440607130051E+03
     4.086000000000E+05 1.862645149231E-09-7.444068945294E-01 1.862645149231E-09
     9.852766079027E-01 1.909687500000E+02-1.644409447294E+00-5.370223691372E-09
    -1.335769925893E-10 2.580000000000E+02 2.034000000000E+03 0.000000000000E+00
     3.120000000000E+00 5.600000000000E+01 1.164153218269E-09 0.000000000000E+00
     4.093000000000E+05 0.000000000000E+00 0.000000000000E+00 0.000000000000E+00
